BEIDOU-2 IGSO-1         
1 36828U 10036A   26132.68902604 -.00000041  00000+0  00000+0 0  9990
2 36828  54.2951 163.2807 0058855 224.5644 197.8413  1.00282752 57743
BEIDOU-2 G4             
1 37210U 10057A   26133.53261492 -.00000098  00000+0  00000+0 0  9999
2 37210   3.5606  69.1372 0005551 210.6135 303.2647  1.00272599 56941
BEIDOU-2 IGSO-2         
1 37256U 10068A   26131.68069234 -.00000217  00000+0  00000+0 0  9998
2 37256  47.6185 272.2854 0053911 212.0964  96.0853  1.00295576 56422
BEIDOU-2 IGSO-3         
1 37384U 11013A   26131.75395624 -.00000196  00000+0  00000+0 0  9990
2 37384  62.3600  40.4988 0034014 186.6429  22.0878  1.00277207 55299
BEIDOU-2 IGSO-4         
1 37763U 11038A   26132.55512303  .00000071  00000+0  00000+0 0  9993
2 37763  54.5847 165.9879 0158048 233.0606 122.6137  1.00291444 54288
BEIDOU-2 IGSO-5         
1 37948U 11073A   26132.85927854 -.00000169  00000+0  00000+0 0  9990
2 37948  47.7459 271.9821 0111746 220.6490 139.9953  1.00256739 52786
BEIDOU-2 G5             
1 38091U 12008A   26133.54622116  .00000072  00000+0  00000+0 0  9991
2 38091   3.4870  69.8921 0011068 271.6037 145.1194  1.00271690 52022
BEIDOU-2 M3             
1 38250U 12018A   26132.21251275 -.00000038  00000+0  00000+0 0  9999
2 38250  55.7895 306.0876 0019772 276.8668  82.9033  1.86230132 95272
BEIDOU-2 M4             
1 38251U 12018B   26132.68171406 -.00000040  00000+0  00000+0 0  9991
2 38251  55.6900 305.2883 0010954 282.0858  77.7844  1.86229765 95284
BEIDOU-2 M6             
1 38775U 12050B   26132.92851786 -.00000031  00000+0  00000+0 0  9991
2 38775  56.5148  64.0600 0014335 351.3673   8.5917  1.86230879 92657
BEIDOU-2 G6             
1 38953U 12059A   26133.40869251 -.00000161  00000+0  00000+0 0  9992
2 38953   4.3331  73.8831 0010561 320.6623  67.8286  1.00272088 49568
BEIDOU-3S IGSO-1S       
1 40549U 15019A   26133.41085919 -.00000176  00000+0  00000+0 0  9993
2 40549  49.2629 295.8798 0037694 190.2202 347.0653  1.00257803 40726
BEIDOU-3S M2S           
1 40748U 15037A   26133.42160253 -.00000044  00000+0  00000+0 0  9994
2 40748  54.9026 303.2431 0007483 267.3673  92.5347  1.86232251 73474
BEIDOU-3S M1S           
1 40749U 15037B   26132.02261529 -.00000039  00000+0  00000+0 0  9992
2 40749  54.9005 303.2786 0004165  55.6265 304.4052  1.86254900 73455
BEIDOU-3S IGSO-2S       
1 40938U 15053A   26132.82802591 -.00000170  00000+0  00000+0 0  9994
2 40938  49.2795 259.2036 0064136 190.8532 175.1743  1.00267876 39004
BEIDOU-2 IGSO-6         
1 41434U 16021A   26132.69800534 -.00000168  00000+0  00000+0 0  9999
2 41434  60.1782  38.3945 0057377 232.3648 305.6209  1.00265576 37121
BEIDOU-2 G7             
1 41586U 16037A   26133.48521563 -.00000339  00000+0  00000+0 0  9994
2 41586   1.6335  68.9792 0007620 358.5584  88.9633  1.00269833  6542
BEIDOU-3 M1             
1 43001U 17069A   26133.23085256 -.00000032  00000+0  00000+0 0  9991
2 43001  56.6626  64.2366 0011651 320.3000  39.5976  1.86231382 57959
BEIDOU-3 M2             
1 43002U 17069B   26132.63256507 -.00000029  00000+0  00000+0 0  9990
2 43002  56.6618  64.2914 0009865 343.4550  16.4970  1.86230667 57931
BEIDOU-3 M7             
1 43107U 18003A   26133.44810735 -.00000046  00000+0  00000+0 0  9993
2 43107  54.3605 303.5264 0005233  85.3139 274.7340  1.86228299 56707
BEIDOU-3 M8             
1 43108U 18003B   26132.85647029 -.00000043  00000+0  00000+0 0  9999
2 43108  54.3540 303.5291 0002179 277.0252  82.9401  1.86231209 56700
BEIDOU-3 M4             
1 43207U 18018A   26132.22522381 -.00000027  00000+0  00000+0 0  9991
2 43207  56.6208  64.3349 0007758   6.5048 353.4905  1.86231343 56072
BEIDOU-3 M3             
1 43208U 18018B   26131.21777272 -.00000022  00000+0  00000+0 0  9996
2 43208  56.6194  64.3718 0009642 332.4369  27.4998  1.86231284 56050
BEIDOU-3 M9             
1 43245U 18029A   26133.04629377 -.00000044  00000+0  00000+0 0  9998
2 43245  54.2274 301.1779 0000806 101.0152 258.9805  1.86228328 55249
BEIDOU-3 M10            
1 43246U 18029B   26132.98083424 -.00000043  00000+0  00000+0 0  9997
2 43246  54.2250 301.2067 0004582  37.0226 322.9958  1.86229382 55220
BEIDOU-2 IGSO-7         
1 43539U 18057A   26130.51871762 -.00000011  00000+0  00000+0 0  9995
2 43539  55.1875 163.3876 0104003 237.7354 126.1724  1.00262765 28754
BEIDOU-3 M5             
1 43581U 18062A   26132.13113073  .00000077  00000+0  00000+0 0  9993
2 43581  54.0834 183.5303 0004814 287.8378  72.1926  1.86229005 52962
BEIDOU-3 M6             
1 43582U 18062B   26133.06834912  .00000088  00000+0  00000+0 0  9991
2 43582  54.0830 183.4875 0004753  17.1476 342.9557  1.86227902 52981
BEIDOU-3 M12            
1 43602U 18067A   26129.24802271  .00000046  00000+0  00000+0 0  9991
2 43602  54.1783 182.3610 0007840  32.7480 327.3771  1.86227965 52394
BEIDOU-3 M11            
1 43603U 18067B   26132.60474189  .00000085  00000+0  00000+0 0  9992
2 43603  54.1758 182.2111 0004416  17.3082 342.7922  1.86227468 52482
BEIDOU-3 M13            
1 43622U 18072A   26133.09671990 -.00000033  00000+0  00000+0 0  9996
2 43622  56.5952  63.8177 0008353 321.4875  38.4366  1.86231499 52002
